ONEWEB-0381             
1 49307U 21090AE  26078.08349452  .00000116  00000+0  25268-3 0  9996
2 49307  87.9161 292.4307 0001411  85.1951 274.9344 13.20770698217938
ONEWEB-0382             
1 49308U 21090AF  26078.14662067  .00000047  00000+0  82661-4 0  9998
2 49308  87.9158 292.4142 0001378  91.0211 269.1080 13.20770833217933
ONEWEB-0383             
1 49309U 21090AG  26078.13640232 -.00000026  00000+0 -10497-3 0  9994
2 49309  87.8973 307.6650 0001528  87.8334 272.2971 13.14503349215769
ONEWEB-0384             
1 49310U 21090AH  26078.28920825  .00000078  00000+0  16084-3 0  9994
2 49310  87.9158 292.4291 0001202  98.5647 261.5623 13.20808246217964
ONEWEB-0385             
1 49311U 21090AJ  26078.29025410  .00000062  00000+0  12140-3 0  9994
2 49311  87.9159 292.3903 0001484  88.0002 272.1301 13.20772074217933
ONEWEB-0386             
1 49312U 21090AK  26078.15609678  .00000162  00000+0  36764-3 0  9993
2 49312  87.9162 292.4021 0001430  91.9419 268.1879 13.20771316217939
ONEWEB-0387             
1 49313U 21090AL  26078.14030858  .00000069  00000+0  13765-3 0  9993
2 49313  87.9149 292.4415 0001509  77.7514 282.3788 13.20770933217938
ONEWEB-0388             
1 49314U 21090AM  26078.18585028  .00000068  00000+0  13813-3 0  9995
2 49314  87.9218 322.9086 0001629  83.8030 276.3288 13.19724039214549
ONEWEB-0389             
1 50469U 21132A   26078.29029642  .00000043  00000+0  78443-4 0  9996
2 50469  87.9163  23.7198 0001566  71.8596 288.2706 13.17650479206244
ONEWEB-0390             
1 50470U 21132B   26078.29198162  .00000075  00000+0  15881-3 0  9993
2 50470  87.9166  23.7198 0002079  75.3136 284.8226 13.17647862206249
ONEWEB-0391             
1 50471U 21132C   26078.29367162  .00000009  00000+0 -10983-4 0  9999
2 50471  87.9166  23.7286 0001620  50.9183 309.2092 13.17650605206242
ONEWEB-0392             
1 50472U 21132D   26078.24811277  .00000040  00000+0  69996-4 0  9998
2 50472  87.9174  23.6990 0001628  69.3695 290.7611 13.17650256206279
ONEWEB-0393             
1 50473U 21132E   26078.29718284  .00000051  00000+0  97709-4 0  9993
2 50473  87.9172  23.7123 0001737  75.0465 285.0858 13.17649527206276
ONEWEB-0394             
1 50474U 21132F   26078.26007773  .00000119  00000+0  27009-3 0  9995
2 50474  87.9253 353.3053 0001641  77.0730 283.0586 13.18687106209749
ONEWEB-0395             
1 50475U 21132G   26078.28945530 -.00000366  00000+0 -10686-2 0  9998
2 50475  87.8875  38.9428 0001869  75.1715 284.9620 13.11415295203930
ONEWEB-0396             
1 50476U 21132H   26078.25348058  .00000072  00000+0  15105-3 0  9992
2 50476  87.9253 353.3186 0001712  76.7746 283.3577 13.18687190209780
ONEWEB-0397             
1 50477U 21132J   26078.26832606  .00000069  00000+0  14264-3 0  9992
2 50477  87.9254 353.3157 0001590  80.8857 279.2455 13.18687094209763
