[{"OBJECT_NAME":"ONEWEB-0381","OBJECT_ID":"2021-090AE","EPOCH":"2026-03-19T02:00:13.926528","MEAN_MOTION":13.20770698,"ECCENTRICITY":0.0001411,"INCLINATION":87.9161,"RA_OF_ASC_NODE":292.4307,"ARG_OF_PERICENTER":85.1951,"MEAN_ANOMALY":274.9344,"EPHEMERIS_TYPE":0,"CLASSIFICATION_TYPE":"U","NORAD_CAT_ID":49307,"ELEMENT_SET_NO":999,"REV_AT_EPOCH":21793,"BSTAR":0.0002526806,"MEAN_MOTION_DOT":1.16e-6,"MEAN_MOTION_DDOT":0},{"OBJECT_NAME":"ONEWEB-0382","OBJECT_ID":"2021-090AF","EPOCH":"2026-03-19T03:31:08.025888","MEAN_MOTION":13.20770833,"ECCENTRICITY":0.00013785,"INCLINATION":87.9158,"RA_OF_ASC_NODE":292.4142,"ARG_OF_PERICENTER":91.0211,"MEAN_ANOMALY":269.108,"EPHEMERIS_TYPE":0,"CLASSIFICATION_TYPE":"U","NORAD_CAT_ID":49308,"ELEMENT_SET_NO":999,"REV_AT_EPOCH":21793,"BSTAR":8.2660529e-5,"MEAN_MOTION_DOT":4.7e-7,"MEAN_MOTION_DDOT":0},{"OBJECT_NAME":"ONEWEB-0383","OBJECT_ID":"2021-090AG","EPOCH":"2026-03-19T03:16:25.160448","MEAN_MOTION":13.14503349,"ECCENTRICITY":0.00015287,"INCLINATION":87.8973,"RA_OF_ASC_NODE":307.665,"ARG_OF_PERICENTER":87.8334,"MEAN_ANOMALY":272.2971,"EPHEMERIS_TYPE":0,"CLASSIFICATION_TYPE":"U","NORAD_CAT_ID":49309,"ELEMENT_SET_NO":999,"REV_AT_EPOCH":21576,"BSTAR":-0.00010497107,"MEAN_MOTION_DOT":-2.6e-7,"MEAN_MOTION_DDOT":0},{"OBJECT_NAME":"ONEWEB-0384","OBJECT_ID":"2021-090AH","EPOCH":"2026-03-19T06:56:27.592800","MEAN_MOTION":13.20808246,"ECCENTRICITY":0.00012021,"INCLINATION":87.9158,"RA_OF_ASC_NODE":292.4291,"ARG_OF_PERICENTER":98.5647,"MEAN_ANOMALY":261.5623,"EPHEMERIS_TYPE":0,"CLASSIFICATION_TYPE":"U","NORAD_CAT_ID":49310,"ELEMENT_SET_NO":999,"REV_AT_EPOCH":21796,"BSTAR":0.00016083877,"MEAN_MOTION_DOT":7.8e-7,"MEAN_MOTION_DDOT":0},{"OBJECT_NAME":"ONEWEB-0385","OBJECT_ID":"2021-090AJ","EPOCH":"2026-03-19T06:57:57.954240","MEAN_MOTION":13.20772074,"ECCENTRICITY":0.00014842,"INCLINATION":87.9159,"RA_OF_ASC_NODE":292.3903,"ARG_OF_PERICENTER":88.0002,"MEAN_ANOMALY":272.1301,"EPHEMERIS_TYPE":0,"CLASSIFICATION_TYPE":"U","NORAD_CAT_ID":49311,"ELEMENT_SET_NO":999,"REV_AT_EPOCH":21793,"BSTAR":0.00012140288,"MEAN_MOTION_DOT":6.2e-7,"MEAN_MOTION_DDOT":0},{"OBJECT_NAME":"ONEWEB-0386","OBJECT_ID":"2021-090AK","EPOCH":"2026-03-19T03:44:46.761792","MEAN_MOTION":13.20771316,"ECCENTRICITY":0.00014301,"INCLINATION":87.9162,"RA_OF_ASC_NODE":292.4021,"ARG_OF_PERICENTER":91.9419,"MEAN_ANOMALY":268.1879,"EPHEMERIS_TYPE":0,"CLASSIFICATION_TYPE":"U","NORAD_CAT_ID":49312,"ELEMENT_SET_NO":999,"REV_AT_EPOCH":21793,"BSTAR":0.00036763794,"MEAN_MOTION_DOT":1.62e-6,"MEAN_MOTION_DDOT":0},{"OBJECT_NAME":"ONEWEB-0387","OBJECT_ID":"2021-090AL","EPOCH":"2026-03-19T03:22:02.661312","MEAN_MOTION":13.20770933,"ECCENTRICITY":0.0001509,"INCLINATION":87.9149,"RA_OF_ASC_NODE":292.4415,"ARG_OF_PERICENTER":77.7514,"MEAN_ANOMALY":282.3788,"EPHEMERIS_TYPE":0,"CLASSIFICATION_TYPE":"U","NORAD_CAT_ID":49313,"ELEMENT_SET_NO":999,"REV_AT_EPOCH":21793,"BSTAR":0.00013764969,"MEAN_MOTION_DOT":6.9e-7,"MEAN_MOTION_DDOT":0},{"OBJECT_NAME":"ONEWEB-0388","OBJECT_ID":"2021-090AM","EPOCH":"2026-03-19T04:27:37.464192","MEAN_MOTION":13.19724039,"ECCENTRICITY":0.00016296,"INCLINATION":87.9218,"RA_OF_ASC_NODE":322.9086,"ARG_OF_PERICENTER":83.803,"MEAN_ANOMALY":276.3288,"EPHEMERIS_TYPE":0,"CLASSIFICATION_TYPE":"U","NORAD_CAT_ID":49314,"ELEMENT_SET_NO":999,"REV_AT_EPOCH":21454,"BSTAR":0.0001381273,"MEAN_MOTION_DOT":6.8e-7,"MEAN_MOTION_DDOT":0},{"OBJECT_NAME":"ONEWEB-0389","OBJECT_ID":"2021-132A","EPOCH":"2026-03-19T06:58:01.610688","MEAN_MOTION":13.17650479,"ECCENTRICITY":0.00015665,"INCLINATION":87.9163,"RA_OF_ASC_NODE":23.7198,"ARG_OF_PERICENTER":71.8596,"MEAN_ANOMALY":288.2706,"EPHEMERIS_TYPE":0,"CLASSIFICATION_TYPE":"U","NORAD_CAT_ID":50469,"ELEMENT_SET_NO":999,"REV_AT_EPOCH":20624,"BSTAR":7.8443054e-5,"MEAN_MOTION_DOT":4.3e-7,"MEAN_MOTION_DDOT":0},{"OBJECT_NAME":"ONEWEB-0390","OBJECT_ID":"2021-132B","EPOCH":"2026-03-19T07:00:27.211968","MEAN_MOTION":13.17647862,"ECCENTRICITY":0.0002079,"INCLINATION":87.9166,"RA_OF_ASC_NODE":23.7198,"ARG_OF_PERICENTER":75.3136,"MEAN_ANOMALY":284.8226,"EPHEMERIS_TYPE":0,"CLASSIFICATION_TYPE":"U","NORAD_CAT_ID":50470,"ELEMENT_SET_NO":999,"REV_AT_EPOCH":20624,"BSTAR":0.00015880958,"MEAN_MOTION_DOT":7.5e-7,"MEAN_MOTION_DDOT":0},{"OBJECT_NAME":"ONEWEB-0391","OBJECT_ID":"2021-132C","EPOCH":"2026-03-19T07:02:53.227968","MEAN_MOTION":13.17650605,"ECCENTRICITY":0.00016202,"INCLINATION":87.9166,"RA_OF_ASC_NODE":23.7286,"ARG_OF_PERICENTER":50.9183,"MEAN_ANOMALY":309.2092,"EPHEMERIS_TYPE":0,"CLASSIFICATION_TYPE":"U","NORAD_CAT_ID":50471,"ELEMENT_SET_NO":999,"REV_AT_EPOCH":20624,"BSTAR":-1.0982873e-5,"MEAN_MOTION_DOT":9.0e-8,"MEAN_MOTION_DDOT":0},{"OBJECT_NAME":"ONEWEB-0392","OBJECT_ID":"2021-132D","EPOCH":"2026-03-19T05:57:16.943328","MEAN_MOTION":13.17650256,"ECCENTRICITY":0.00016286,"INCLINATION":87.9174,"RA_OF_ASC_NODE":23.699,"ARG_OF_PERICENTER":69.3695,"MEAN_ANOMALY":290.7611,"EPHEMERIS_TYPE":0,"CLASSIFICATION_TYPE":"U","NORAD_CAT_ID":50472,"ELEMENT_SET_NO":999,"REV_AT_EPOCH":20627,"BSTAR":6.9996193e-5,"MEAN_MOTION_DOT":4.0e-7,"MEAN_MOTION_DDOT":0},{"OBJECT_NAME":"ONEWEB-0393","OBJECT_ID":"2021-132E","EPOCH":"2026-03-19T07:07:56.597376","MEAN_MOTION":13.17649527,"ECCENTRICITY":0.00017375,"INCLINATION":87.9172,"RA_OF_ASC_NODE":23.7123,"ARG_OF_PERICENTER":75.0465,"MEAN_ANOMALY":285.0858,"EPHEMERIS_TYPE":0,"CLASSIFICATION_TYPE":"U","NORAD_CAT_ID":50473,"ELEMENT_SET_NO":999,"REV_AT_EPOCH":20627,"BSTAR":9.7709465e-5,"MEAN_MOTION_DOT":5.1e-7,"MEAN_MOTION_DDOT":0},{"OBJECT_NAME":"ONEWEB-0394","OBJECT_ID":"2021-132F","EPOCH":"2026-03-19T06:14:30.715872","MEAN_MOTION":13.18687106,"ECCENTRICITY":0.00016413,"INCLINATION":87.9253,"RA_OF_ASC_NODE":353.3053,"ARG_OF_PERICENTER":77.073,"MEAN_ANOMALY":283.0586,"EPHEMERIS_TYPE":0,"CLASSIFICATION_TYPE":"U","NORAD_CAT_ID":50474,"ELEMENT_SET_NO":999,"REV_AT_EPOCH":20974,"BSTAR":0.0002700929,"MEAN_MOTION_DOT":1.19e-6,"MEAN_MOTION_DDOT":0},{"OBJECT_NAME":"ONEWEB-0395","OBJECT_ID":"2021-132G","EPOCH":"2026-03-19T06:56:48.937920","MEAN_MOTION":13.11415295,"ECCENTRICITY":0.00018693,"INCLINATION":87.8875,"RA_OF_ASC_NODE":38.9428,"ARG_OF_PERICENTER":75.1715,"MEAN_ANOMALY":284.962,"EPHEMERIS_TYPE":0,"CLASSIFICATION_TYPE":"U","NORAD_CAT_ID":50475,"ELEMENT_SET_NO":999,"REV_AT_EPOCH":20393,"BSTAR":-0.0010685938,"MEAN_MOTION_DOT":-3.66e-6,"MEAN_MOTION_DDOT":0},{"OBJECT_NAME":"ONEWEB-0396","OBJECT_ID":"2021-132H","EPOCH":"2026-03-19T06:05:00.722112","MEAN_MOTION":13.1868719,"ECCENTRICITY":0.00017123,"INCLINATION":87.9253,"RA_OF_ASC_NODE":353.3186,"ARG_OF_PERICENTER":76.7746,"MEAN_ANOMALY":283.3577,"EPHEMERIS_TYPE":0,"CLASSIFICATION_TYPE":"U","NORAD_CAT_ID":50476,"ELEMENT_SET_NO":999,"REV_AT_EPOCH":20978,"BSTAR":0.00015104996,"MEAN_MOTION_DOT":7.2e-7,"MEAN_MOTION_DDOT":0},{"OBJECT_NAME":"ONEWEB-0397","OBJECT_ID":"2021-132J","EPOCH":"2026-03-19T06:26:23.371584","MEAN_MOTION":13.18687094,"ECCENTRICITY":0.00015903,"INCLINATION":87.9254,"RA_OF_ASC_NODE":353.3157,"ARG_OF_PERICENTER":80.8857,"MEAN_ANOMALY":279.2455,"EPHEMERIS_TYPE":0,"CLASSIFICATION_TYPE":"U","NORAD_CAT_ID":50477,"ELEMENT_SET_NO":999,"REV_AT_EPOCH":20976,"BSTAR":0.00014264398,"MEAN_MOTION_DOT":6.9e-7,"MEAN_MOTION_DDOT":0}]
